MALLIGYONG-1            
1 58400U 23179A   24108.17692884  .00015017  00000+0  66057-3 0  9999
2 58400  97.4118 355.9403 0011241 113.3636 246.8784 15.21911755 22448
